{
  "type": "FeatureCollection",
  "name": "batas_desa",
  "crs": { "type": "name", "properties": { "name": "urn:ogc:def:crs:OGC:1.3:CRS84" } },
  "features": [
    {
      "type": "Feature",
      "properties": { "nama_desa": "Hegarmanah", "kecamatan": "Bojongpicung", "kabupaten": "Cianjur", "provinsi": "Jawa Barat", "kode_desa": "3203160013", "luas_ha": 4.2353665461206154 },
      "geometry": {
        "type": "Polygon",
        "coordinates": [
          [
            [107.273034165999832, -6.819806078999848, 0.0],
            [107.273036531999821, -6.819824256999851, 0.0],
            [107.273070959999814, -6.819829187999884, 0.0],
            [107.273174349999806, -6.820331739999896, 0.0],
            [107.273226639999862, -6.820520039999884, 0.0],
            [107.273233549999816, -6.820561439999865, 0.0],
            [107.273233499999847, -6.820688659999892, 0.0],
            [107.273240839999858, -6.820710199999866, 0.0],
            [107.273260359999824, -6.820719489999854, 0.0],
            [107.273299989999828, -6.820717829999902, 0.0],
            [107.273390849999828, -6.820720809999868, 0.0],
            [107.273496559999842, -6.820730979999871, 0.0],
            [107.27352488999982, -6.820728789999899, 0.0],
            [107.273566069999845, -6.820738139999855, 0.0],
            [107.27364072999984, -6.820728429999889, 0.0],
            [107.273664759999861, -6.820729749999858, 0.0],
            [107.273692429999812, -6.82073553999985, 0.0],
            [107.27371453999983, -6.820844329999855, 0.0],
            [107.273727639999834, -6.82088740999988, 0.0],
            [107.273746999999858, -6.820975789999903, 0.0],
            [107.273759819999853, -6.821018669999858, 0.0],
            [107.273766939999874, -6.821060929999853, 0.0],
            [107.273767289999853, -6.821120829999846, 0.0],
            [107.273773099999858, -6.821158909999864, 0.0],
            [107.273780239999837, -6.821256629999858, 0.0],
            [107.273794689999818, -6.821324049999845, 0.0],
            [107.273797379999849, -6.821369769999847, 0.0],
            [107.273805557999836, -6.821429615999847, 0.0],
            [107.273818209999831, -6.82147477999987, 0.0],
            [107.273824299999831, -6.821576379999863, 0.0],
            [107.273817194999822, -6.821743391999891, 0.0],
            [107.273819190999859, -6.821963408999893, 0.0],
            [107.273797666999826, -6.822104390999847, 0.0],
            [107.273766083999817, -6.822307346999853, 0.0],
            [107.273755648999852, -6.822377947999861, 0.0],
            [107.273764158999839, -6.822406606999874, 0.0],
            [107.273805332999814, -6.822438923999838, 0.0],
            [107.274037069999864, -6.822543169999883, 0.0],
            [107.274378034999813, -6.82270293199989, 0.0],
            [107.274616464999838, -6.822825031999886, 0.0],
            [107.274689130999832, -6.822856314999874, 0.0],
            [107.275036803999853, -6.823095399999856, 0.0],
            [107.27529436199984, -6.823277025999889, 0.0],
            [107.275532479999825, -6.82343455499987, 0.0],
            [107.275691380999831, -6.823523093999855, 0.0],
            [107.275720442999841, -6.823538734999854, 0.0],
            [107.275757339999814, -6.823557730999847, 0.0],
            [107.275771871999837, -6.823570017999861, 0.0],
            [107.275778577999858, -6.82360800499984, 0.0],
            [107.275781930999813, -6.823653811999893, 0.0],
            [107.275783049999859, -6.823720844999893, 0.0],
            [107.275783826999827, -6.823756398999842, 0.0],
            [107.275857120999845, -6.823850022999889, 0.0],
            [107.275957894999806, -6.823978248999858, 0.0],
            [107.275955883999828, -6.823995082999864, 0.0],
            [107.277141888999836, -6.824012237999892, 0.0],
            [107.277334688999815, -6.82431654099989, 0.0],
            [107.277428314999838, -6.824324754999878, 0.0],
            [107.277622187999839, -6.824378770999853, 0.0],
            [107.277879181999822, -6.824474745999875, 0.0],
            [107.278200817999846, -6.824645553999889, 0.0],
            [107.278547067999853, -6.824847838999882, 0.0],
            [107.278554405999856, -6.824856595999887, 0.0],
            [107.278667332999817, -6.82488051099987, 0.0],
            [107.278721741999846, -6.824877986999902, 0.0],
            [107.278813124999829, -6.824880359999868, 0.0],
            [107.278983734999827, -6.824919156999874, 0.0],
            [107.27911305899984, -6.824943417999896, 0.0],
            [107.279376237999841, -6.825003934999842, 0.0],
            [107.27956522199986, -6.825156761999872, 0.0],
            [107.279670248999835, -6.825234797999854, 0.0],
            [107.28025922299986, -6.825184984999871, 0.0],
            [107.280320258999836, -6.825473021999835, 0.0],
            [107.280268987999833, -6.825563770999883, 0.0],
            [107.280270068999812, -6.82566130199988, 0.0],
            [107.280301687999852, -6.825661301999879, 0.0],
            [107.281150363999814, -6.825910646999868, 0.0],
            [107.281653686999846, -6.826063968999875, 0.0],
            [107.281734433999816, -6.826102971999854, 0.0],
            [107.281813835999856, -6.826152734999855, 0.0],
            [107.281913863999819, -6.826210232999853, 0.0],
            [107.282099860999836, -6.826378675999858, 0.0],
            [107.282290729999829, -6.826537459999852, 0.0],
            [107.282331975999867, -6.826577990999883, 0.0],
            [107.282332354999824, -6.826578351999876, 0.0],
            [107.282369878999816, -6.82663752299985, 0.0],
            [107.282783277999854, -6.827026826999863, 0.0],
            [107.282911150999851, -6.827148669999845, 0.0],
            [107.283017520999806, -6.827250144999852, 0.0],
            [107.283082901999819, -6.827291722999885, 0.0],
            [107.283397724999816, -6.827491927999895, 0.0],
            [107.284035934999849, -6.827793848999855, 0.0],
            [107.284405254999854, -6.827970031999862, 0.0],
            [107.28520647099981, -6.828306891999861, 0.0],
            [107.285809028999836, -6.828512479999884, 0.0],
            [107.286092770999872, -6.828604882999888, 0.0],
            [107.286533262999853, -6.828787665999855, 0.0],
            [107.286911027999864, -6.828990498999848, 0.0],
            [107.287035395999851, -6.829034000999892, 0.0],
            [107.287097385999857, -6.829064356999855, 0.0],
            [107.287067391999813, -6.829310441999866, 0.0],
            [107.287384899999836, -6.829419058999887, 0.0],
            [107.288322883999854, -6.829826432999845, 0.0],
            [107.288339508999869, -6.830001416999862, 0.0],
            [107.288467882999839, -6.830147887999862, 0.0],
            [107.288472968999841, -6.830459931999856, 0.0],
            [107.289416088999815, -6.830775562999888, 0.0],
            [107.288852136999836, -6.830894924999861, 0.0],
            [107.288778528999856, -6.830947283999857, 0.0],
            [107.288734285999851, -6.831109632999843, 0.0],
            [107.288568934999844, -6.831621246999847, 0.0],
            [107.28830056399984, -6.831541208999888, 0.0],
            [107.288227627999859, -6.831701311999864, 0.0],
            [107.288006429999839, -6.831880295999869, 0.0],
            [107.287964668999862, -6.832061189999846, 0.0],
            [107.287851702999831, -6.832015516999869, 0.0],
            [107.287742588999848, -6.832296597999888, 0.0],
            [107.287409953999841, -6.832187686999844, 0.0],
            [107.287350377999829, -6.832339594999873, 0.0],
            [107.287101141999813, -6.833021325999847, 0.0],
            [107.286916117999851, -6.833511758999891, 0.0],
            [107.287257433999869, -6.833634498999894, 0.0],
            [107.286692334999842, -6.83523037299986, 0.0],
            [107.287006595999856, -6.835330773999864, 0.0],
            [107.286787526999845, -6.835872560999883, 0.0],
            [107.286471053999847, -6.836863743999884, 0.0],
            [107.286236985999849, -6.836875287999848, 0.0],
            [107.286210350999852, -6.836875403999872, 0.0],
            [107.286200423999844, -6.836871906999852, 0.0],
            [107.286185819999844, -6.836865488999859, 0.0],
            [107.285889617999842, -6.836661242999905, 0.0],
            [107.285884235999845, -6.836646379999859, 0.0],
            [107.285883649999846, -6.836631216999852, 0.0],
            [107.285888321999849, -6.836615471999873, 0.0],
            [107.285935866999822, -6.836382338999875, 0.0],
            [107.285937430999809, -6.836376193999877, 0.0],
            [107.285937880999825, -6.836372371999879, 0.0],
            [107.285937430999809, -6.83636944999987, 0.0],
            [107.285935178999807, -6.836366751999859, 0.0],
            [107.285932476999847, -6.83636517899985, 0.0],
            [107.28592437299983, -6.836363380999875, 0.0],
            [107.285477964999814, -6.836274950999872, 0.0],
            [107.285473498999821, -6.836273364999873, 0.0],
            [107.285471235999808, -6.836271104999897, 0.0],
            [107.285469537999859, -6.836266865999866, 0.0],
            [107.285468689999846, -6.836260650999897, 0.0],
            [107.28546868999986, -6.836253307999842, 0.0],
            [107.285513138999818, -6.835964528999876, 0.0],
            [107.285590812999828, -6.835539955999856, 0.0],
            [107.285599462999812, -6.835501343999881, 0.0],
            [107.285601679999843, -6.835463365999853, 0.0],
            [107.285607626999834, -6.835393606999877, 0.0],
            [107.285608251999861, -6.835387046999847, 0.0],
            [107.285607939999821, -6.835381108999883, 0.0],
            [107.285606376999866, -6.835369861999861, 0.0],
            [107.285600740999826, -6.835360797999872, 0.0],
            [107.285596049999825, -6.835356425999891, 0.0],
            [107.285511554999857, -6.835337990999875, 0.0],
            [107.285067075999848, -6.835224678999878, 0.0],
            [107.284059233999812, -6.835009644999878, 0.0],
            [107.283788312999832, -6.835009555999846, 0.0],
            [107.283765153999809, -6.835429318999878, 0.0],
            [107.283765283999855, -6.835433823999869, 0.0],
            [107.283749838999825, -6.835434291999857, 0.0],
            [107.283729543999826, -6.835435820999886, 0.0],
            [107.283225018999829, -6.835407084999855, 0.0],
            [107.28305977299982, -6.835376570999846, 0.0],
            [107.282504030999874, -6.835292908999884, 0.0],
            [107.282506379999859, -6.835083454999872, 0.0],
            [107.282489716999805, -6.834940550999855, 0.0],
            [107.282485817999842, -6.834798906999863, 0.0],
            [107.28247916599986, -6.834597306999878, 0.0],
            [107.28218872199983, -6.834583538999855, 0.0],
            [107.282048106999824, -6.834574995999879, 0.0],
            [107.281511125999842, -6.834497094999885, 0.0],
            [107.28151641199986, -6.834470971999885, 0.0],
            [107.281518392999843, -6.834450543999849, 0.0],
            [107.281521691999842, -6.834419571999868, 0.0],
            [107.281522351999868, -6.834397824999864, 0.0],
            [107.281514501999837, -6.83435341899988, 0.0],
            [107.281509325999835, -6.834332733999853, 0.0],
            [107.281504145999875, -6.834315743999896, 0.0],
            [107.281503378999844, -6.834282761999848, 0.0],
            [107.281492282999821, -6.834253213999866, 0.0],
            [107.281482663999839, -6.834230312999892, 0.0],
            [107.281476007999871, -6.834194119999876, 0.0],
            [107.281473786999825, -6.834173435999882, 0.0],
            [107.281471567999859, -6.834140931999894, 0.0],
            [107.281458901999827, -6.834073412999853, 0.0],
            [107.281453722999871, -6.834046817999851, 0.0],
            [107.281443367999842, -6.834003974999893, 0.0],
            [107.281431487999853, -6.833950427999901, 0.0],
            [107.281430747999835, -6.833921616999845, 0.0],
            [107.281430747999835, -6.833883946999863, 0.0],
            [107.281430980999858, -6.833821070999851, 0.0],
            [107.281430980999858, -6.833785615999857, 0.0],
            [107.281432165999831, -6.833756066999883, 0.0],
            [107.281432165999831, -6.833741882999879, 0.0],
            [107.281441634999851, -6.833698154999889, 0.0],
            [107.281441634999851, -6.833687516999849, 0.0],
            [107.280717209999807, -6.833696973999883, 0.0],
            [107.280553326999836, -6.833657484999863, 0.0],
            [107.280542674999822, -6.833724852999905, 0.0],
            [107.280122460999848, -6.833661029999894, 0.0],
            [107.280091205999852, -6.833772679999904, 0.0],
            [107.280078170999843, -6.833960950999852, 0.0],
            [107.280046209999853, -6.833972768999877, 0.0],
            [107.280041449999828, -6.834066567999884, 0.0],
            [107.280023694999841, -6.834138665999865, 0.0],
            [107.279996400999835, -6.834310427999895, 0.0],
            [107.279953785999865, -6.834326975999859, 0.0],
            [107.279904001999867, -6.834467095999884, 0.0],
            [107.279906179999855, -6.834611875999856, 0.0],
            [107.279637668999854, -6.834586465999879, 0.0],
            [107.279602158999808, -6.834575830999849, 0.0],
            [107.279380807999814, -6.834567555999883, 0.0],
            [107.279370087999837, -6.835152742999889, 0.0],
            [107.27916631699982, -6.835170563999866, 0.0],
            [107.278756753999858, -6.835190451999869, 0.0],
            [107.278893360999859, -6.835314222999874, 0.0],
            [107.27919440199986, -6.835771410999849, 0.0],
            [107.278888267999847, -6.83586400499988, 0.0],
            [107.278569515999848, -6.835952411999839, 0.0],
            [107.277889009999853, -6.836088810999885, 0.0],
            [107.277873555999875, -6.836233068999858, 0.0],
            [107.277825490999831, -6.836324001999882, 0.0],
            [107.277874640999826, -6.836417175999848, 0.0],
            [107.277998130999833, -6.836960276999859, 0.0],
            [107.278090917999805, -6.837353014999874, 0.0],
            [107.278393933999837, -6.838724107999861, 0.0],
            [107.278637588999857, -6.83985081199986, 0.0],
            [107.278611004999846, -6.839846923999892, 0.0],
            [107.278064414999847, -6.839790234999869, 0.0],
            [107.277270776999842, -6.839673872999907, 0.0],
            [107.273816209999836, -6.839181583999881, 0.0],
            [107.273171570999807, -6.839048123999857, 0.0],
            [107.272616921999827, -6.839851626999886, 0.0],
            [107.272726009999829, -6.83990815699988, 0.0],
            [107.272790772999826, -6.839931670999853, 0.0],
            [107.272910733999822, -6.839959594999844, 0.0],
            [107.272980865999855, -6.84096285099989, 0.0],
            [107.273101654999849, -6.843606015999878, 0.0],
            [107.27232053899985, -6.843652711999854, 0.0],
            [107.271329911999842, -6.843713122999838, 0.0],
            [107.271028037999827, -6.843714193999894, 0.0],
            [107.27113884899984, -6.843934663999877, 0.0],
            [107.27093649499983, -6.84409815099989, 0.0],
            [107.270736722999857, -6.844212080999887, 0.0],
            [107.270334954999853, -6.843166403999852, 0.0],
            [107.270247729999838, -6.843030097999846, 0.0],
            [107.269721221999831, -6.842370525999888, 0.0],
            [107.269600842999807, -6.842336938999869, 0.0],
            [107.269335275999836, -6.842318234999857, 0.0],
            [107.269046570999819, -6.842283027999855, 0.0],
            [107.268635979999843, -6.842190111999887, 0.0],
            [107.268388045999814, -6.842119695999856, 0.0],
            [107.268070686999806, -6.842004169999853, 0.0],
            [107.267547714999807, -6.841848615999849, 0.0],
            [107.267423760999876, -6.841806095999888, 0.0],
            [107.267057919999857, -6.841615751999857, 0.0],
            [107.266832703999867, -6.841486496999857, 0.0],
            [107.266660802999823, -6.841425984999857, 0.0],
            [107.266260803999856, -6.841367671999849, 0.0],
            [107.265511934999836, -6.841240912999898, 0.0],
            [107.264914124999848, -6.841156957999863, 0.0],
            [107.26447275799984, -6.841097269999891, 0.0],
            [107.264171088999831, -6.840889234999878, 0.0],
            [107.26400431399982, -6.841000663999885, 0.0],
            [107.263879658999826, -6.840970153999854, 0.0],
            [107.26390274899984, -6.840890580999855, 0.0],
            [107.263918392999827, -6.840757534999879, 0.0],
            [107.263923838999872, -6.84069437099985, 0.0],
            [107.263931229999855, -6.840637893999848, 0.0],
            [107.263927112999852, -6.84057668799986, 0.0],
            [107.263901022999846, -6.840524195999842, 0.0],
            [107.263876891999828, -6.840481259999843, 0.0],
            [107.263811562999834, -6.840429669999849, 0.0],
            [107.263736831999836, -6.840425926999876, 0.0],
            [107.263681340999838, -6.840469743999878, 0.0],
            [107.26362655499986, -6.840522616999893, 0.0],
            [107.263527108999824, -6.840647578999861, 0.0],
            [107.263457606999864, -6.840723111999892, 0.0],
            [107.263388395999812, -6.840761702999854, 0.0],
            [107.263206570999856, -6.840768536999895, 0.0],
            [107.263086873999839, -6.840757142999887, 0.0],
            [107.262974316999816, -6.840737342999863, 0.0],
            [107.262883035999849, -6.840713377999895, 0.0],
            [107.262799664999818, -6.840692245999857, 0.0],
            [107.262668693999856, -6.840623983999859, 0.0],
            [107.262590882999874, -6.840564080999877, 0.0],
            [107.26251425799984, -6.840451079999898, 0.0],
            [107.262441960999809, -6.840342361999867, 0.0],
            [107.262366588999853, -6.840190610999887, 0.0],
            [107.262334625999813, -6.840110402999851, 0.0],
            [107.262314276999859, -6.840057404999849, 0.0],
            [107.262335095999845, -6.839905200999888, 0.0],
            [107.262367555999845, -6.839785945999868, 0.0],
            [107.262387013999842, -6.839649532999852, 0.0],
            [107.262424911999872, -6.839465678999854, 0.0],
            [107.262483045999829, -6.83931042999988, 0.0],
            [107.262522413999818, -6.839133743999906, 0.0],
            [107.262556180999809, -6.838987218999856, 0.0],
            [107.262528007999833, -6.838898861999864, 0.0],
            [107.262379536999859, -6.838772804999881, 0.0],
            [107.26193998999986, -6.838442138999848, 0.0],
            [107.261914150999829, -6.838290392999878, 0.0],
            [107.261959304999849, -6.838224411999851, 0.0],
            [107.262043775999814, -6.838123566999889, 0.0],
            [107.262146136999846, -6.838010679999887, 0.0],
            [107.26212312999985, -6.83795219399989, 0.0],
            [107.262073829999849, -6.837899810999855, 0.0],
            [107.261836443999812, -6.83778895499987, 0.0],
            [107.261812683999835, -6.837653621999861, 0.0],
            [107.261926579999866, -6.837154422999875, 0.0],
            [107.262329049999849, -6.836788844999868, 0.0],
            [107.262374563999856, -6.836697749999847, 0.0],
            [107.262714334999828, -6.836768396999872, 0.0],
            [107.262823879999829, -6.836792228999886, 0.0],
            [107.262826503999875, -6.836706287999879, 0.0],
            [107.262838976999859, -6.836600906999854, 0.0],
            [107.262941666999851, -6.836604999999873, 0.0],
            [107.262952344999874, -6.836505747999891, 0.0],
            [107.263304738999807, -6.836498667999853, 0.0],
            [107.263308236999833, -6.836550215999905, 0.0],
            [107.263714350999805, -6.836425628999875, 0.0],
            [107.263687985999823, -6.836314782999897, 0.0],
            [107.263663332999855, -6.8362366669999, 0.0],
            [107.263941666999813, -6.836174999999881, 0.0],
            [107.264024999999847, -6.836148332999845, 0.0],
            [107.264138332999835, -6.836108332999886, 0.0],
            [107.264053734999848, -6.836065161999868, 0.0],
            [107.264092361999829, -6.835953553999878, 0.0],
            [107.264114853999843, -6.835941223999862, 0.0],
            [107.264121131999858, -6.835738899999878, 0.0],
            [107.264106920999836, -6.835719030999861, 0.0],
            [107.264122678999854, -6.835693253999894, 0.0],
            [107.264562841999819, -6.835540629999883, 0.0],
            [107.26454322599983, -6.835503404999865, 0.0],
            [107.264463810999828, -6.835395133999868, 0.0],
            [107.264462350999864, -6.835393143999889, 0.0],
            [107.264371206999854, -6.835268881999899, 0.0],
            [107.264212146999853, -6.835043653999861, 0.0],
            [107.264084593999826, -6.834874915999849, 0.0],
            [107.264040488999868, -6.834816574999841, 0.0],
            [107.264022457999829, -6.834792717999879, 0.0],
            [107.26397252899983, -6.834734346999848, 0.0],
            [107.263956560999816, -6.834715679999851, 0.0],
            [107.263934961999837, -6.834666183999879, 0.0],
            [107.26392685299983, -6.834621019999842, 0.0],
            [107.263915875999842, -6.834576587999864, 0.0],
            [107.263909700999818, -6.834535481999895, 0.0],
            [107.263897854999811, -6.834459005999889, 0.0],
            [107.263894816999837, -6.83442362399988, 0.0],
            [107.263884925999847, -6.834355748999858, 0.0],
            [107.263870855999826, -6.834213275999877, 0.0],
            [107.263850310999842, -6.834118664999859, 0.0],
            [107.263806291999856, -6.833815496999847, 0.0],
            [107.263797280999825, -6.833731234999869, 0.0],
            [107.263794733999816, -6.833647659999863, 0.0],
            [107.263773318999824, -6.833581632999854, 0.0],
            [107.263770374999822, -6.833566101999881, 0.0],
            [107.263763137999831, -6.833553698999858, 0.0],
            [107.263732968999818, -6.833522722999851, 0.0],
            [107.263725554999837, -6.833516706999855, 0.0],
            [107.263723070999859, -6.83351335499989, 0.0],
            [107.263699624999859, -6.833483760999889, 0.0],
            [107.263692293999853, -6.83344856199986, 0.0],
            [107.263679594999829, -6.833343151999857, 0.0],
            [107.263655961999874, -6.833202636999866, 0.0],
            [107.263623354999822, -6.832985392999862, 0.0],
            [107.263606287999849, -6.832867088999858, 0.0],
            [107.263593408999853, -6.832748884999866, 0.0],
            [107.263570844999848, -6.832657511999881, 0.0],
            [107.263561084999822, -6.832621984999862, 0.0],
            [107.263554120999871, -6.832552907999882, 0.0],
            [107.263502769999832, -6.832506755999842, 0.0],
            [107.263486087999823, -6.832464445999879, 0.0],
            [107.26348198199986, -6.83246001599989, 0.0],
            [107.263480390999874, -6.832456435999885, 0.0],
            [107.263439771999856, -6.832409595999853, 0.0],
            [107.263380870999811, -6.832330156999864, 0.0],
            [107.263338808999833, -6.832290294999869, 0.0],
            [107.263248781999849, -6.832306505999864, 0.0],
            [107.263165515999859, -6.832125354999868, 0.0],
            [107.263217597999827, -6.832103460999898, 0.0],
            [107.263163784999861, -6.831946593999851, 0.0],
            [107.263151489999828, -6.831774456999856, 0.0],
            [107.263154498999825, -6.831657459999894, 0.0],
            [107.263193768999827, -6.831627544999859, 0.0],
            [107.26323307499986, -6.831367228999889, 0.0],
            [107.263145000999828, -6.831358261999904, 0.0],
            [107.263166359999843, -6.831230346999885, 0.0],
            [107.263209204999839, -6.831229857999887, 0.0],
            [107.263208745999819, -6.831132282999847, 0.0],
            [107.263614236999842, -6.83114078299989, 0.0],
            [107.263741217999836, -6.831203638999876, 0.0],
            [107.263781614999871, -6.830907667999865, 0.0],
            [107.263694981999848, -6.830700292999873, 0.0],
            [107.263625347999835, -6.830600382999855, 0.0],
            [107.263610621999817, -6.83053823899987, 0.0],
            [107.263639534999811, -6.83051946899988, 0.0],
            [107.263641642999858, -6.830436698999875, 0.0],
            [107.263655260999826, -6.830309365999858, 0.0],
            [107.263649679999858, -6.829934445999838, 0.0],
            [107.263658219999854, -6.829893089999851, 0.0],
            [107.263678746999858, -6.82979367499988, 0.0],
            [107.263681869999857, -6.829778552999836, 0.0],
            [107.263684195999829, -6.829764613999854, 0.0],
            [107.263684786999832, -6.829761062999898, 0.0],
            [107.263695495999869, -6.829696840999853, 0.0],
            [107.263776161999829, -6.829633293999885, 0.0],
            [107.263880740999824, -6.829550911999858, 0.0],
            [107.26398332399981, -6.829470099999901, 0.0],
            [107.264010409999855, -6.829448759999851, 0.0],
            [107.264127800999859, -6.829360379999889, 0.0],
            [107.264154509999855, -6.829340270999893, 0.0],
            [107.264214804999824, -6.829294875999863, 0.0],
            [107.264261415999854, -6.829174575999879, 0.0],
            [107.264307453999834, -6.829078467999892, 0.0],
            [107.264272316999836, -6.829016606999894, 0.0],
            [107.264239708999824, -6.828985434999853, 0.0],
            [107.264239061999831, -6.82898462999989, 0.0],
            [107.264235461999817, -6.828981376999852, 0.0],
            [107.264212160999833, -6.828959104999882, 0.0],
            [107.264209012999871, -6.828957482999876, 0.0],
            [107.264167195999846, -6.828935953999886, 0.0],
            [107.264151614999832, -6.82892835599987, 0.0],
            [107.264111328999832, -6.828908717999899, 0.0],
            [107.26409900799986, -6.828885425999868, 0.0],
            [107.264075280999805, -6.828837627999892, 0.0],
            [107.264073042999826, -6.828790187999882, 0.0],
            [107.264066073999857, -6.828642436999841, 0.0],
            [107.264229289999832, -6.828651566999871, 0.0],
            [107.264391610999851, -6.828658395999904, 0.0],
            [107.264703341999862, -6.82868177699985, 0.0],
            [107.264971163999874, -6.82869630299988, 0.0],
            [107.265392542999848, -6.828697909999869, 0.0],
            [107.265703358999815, -6.828696447999867, 0.0],
            [107.26571062699982, -6.828667040999876, 0.0],
            [107.266429184999822, -6.828627018999866, 0.0],
            [107.267145376999864, -6.828569848999885, 0.0],
            [107.267051787999833, -6.827607188999851, 0.0],
            [107.267750877999845, -6.827582389999898, 0.0],
            [107.267757867999819, -6.827454234999868, 0.0],
            [107.267909174999829, -6.827449603999898, 0.0],
            [107.267976556999841, -6.827450950999869, 0.0],
            [107.26804260099982, -6.827461726999866, 0.0],
            [107.268088421999835, -6.827488664999898, 0.0],
            [107.268158503999828, -6.827535805999868, 0.0],
            [107.268226654999822, -6.827600106999887, 0.0],
            [107.268302194999833, -6.827635624999888, 0.0],
            [107.268378823999853, -6.827648417999891, 0.0],
            [107.268449155999875, -6.827644977999881, 0.0],
            [107.26850649999983, -6.827627488999874, 0.0],
            [107.268565002999836, -6.827551159999846, 0.0],
            [107.268597643999854, -6.827470648999882, 0.0],
            [107.268604280999867, -6.827355820999889, 0.0],
            [107.268605459999833, -6.827301286999862, 0.0],
            [107.26852887099983, -6.827195460999887, 0.0],
            [107.268425878999835, -6.826970656999872, 0.0],
            [107.268402014999822, -6.826857048999878, 0.0],
            [107.26833129799985, -6.826626352999858, 0.0],
            [107.268308110999854, -6.826580542999888, 0.0],
            [107.268226917999812, -6.826411599999885, 0.0],
            [107.268173596999816, -6.826368801999847, 0.0],
            [107.26811961199985, -6.826337486999842, 0.0],
            [107.268077887999823, -6.826318311999866, 0.0],
            [107.268008123999834, -6.826289940999888, 0.0],
            [107.267950573999826, -6.826263664999862, 0.0],
            [107.267901697999832, -6.826250262999876, 0.0],
            [107.267837723999847, -6.826231908999866, 0.0],
            [107.267782330999822, -6.826206339999854, 0.0],
            [107.26773405799986, -6.826168540999875, 0.0],
            [107.26770227499982, -6.826126358999861, 0.0],
            [107.267680486999836, -6.826072650999863, 0.0],
            [107.267681001999847, -6.826029599999885, 0.0],
            [107.267702959999852, -6.825967074999847, 0.0],
            [107.26776735399983, -6.825922288999867, 0.0],
            [107.26786681699987, -6.825855094999871, 0.0],
            [107.267915980999817, -6.825777375999889, 0.0],
            [107.267923599999847, -6.825718506999899, 0.0],
            [107.267880236999829, -6.825656289999842, 0.0],
            [107.267836954999837, -6.825611292999866, 0.0],
            [107.26778294699983, -6.825574954999889, 0.0],
            [107.267726727999843, -6.825526430999863, 0.0],
            [107.267645161999852, -6.825430671999839, 0.0],
            [107.267609761999836, -6.825382767999851, 0.0],
            [107.267586504999841, -6.825321890999843, 0.0],
            [107.267588397999816, -6.825266635999902, 0.0],
            [107.267642732999832, -6.825219744999883, 0.0],
            [107.26768926199982, -6.825192261999888, 0.0],
            [107.267736489999834, -6.825160469999878, 0.0],
            [107.26776063199982, -6.825104392999861, 0.0],
            [107.267771923999817, -6.825063443999885, 0.0],
            [107.267770989999875, -6.825017528999889, 0.0],
            [107.267755652999838, -6.824961637999845, 0.0],
            [107.267749805999827, -6.824939423999895, 0.0],
            [107.267730932999839, -6.824895028999867, 0.0],
            [107.267676003999838, -6.82481564699989, 0.0],
            [107.267523858999837, -6.824670713999891, 0.0],
            [107.267459736999854, -6.824620791999873, 0.0],
            [107.26736290699985, -6.824637031999863, 0.0],
            [107.26727537599983, -6.824664803999873, 0.0],
            [107.26721607199984, -6.824690395999863, 0.0],
            [107.267140599999834, -6.824734842999845, 0.0],
            [107.267029829999842, -6.824823985999872, 0.0],
            [107.266978615999847, -6.824880555999843, 0.0],
            [107.266955072999849, -6.824919483999881, 0.0],
            [107.266914931999864, -6.824931869999863, 0.0],
            [107.266865907999829, -6.824886899999894, 0.0],
            [107.266833308999836, -6.824823914999881, 0.0],
            [107.266802091999807, -6.824749442999886, 0.0],
            [107.266755139999816, -6.824687242999881, 0.0],
            [107.266716960999815, -6.824658723999874, 0.0],
            [107.266619944999846, -6.824635502999895, 0.0],
            [107.266530867999862, -6.824621571999871, 0.0],
            [107.266496365999842, -6.824611688999854, 0.0],
            [107.266483113999811, -6.824592199999848, 0.0],
            [107.266475783999852, -6.824559947999853, 0.0],
            [107.26647438499981, -6.824516905999841, 0.0],
            [107.266485925999859, -6.824427166999863, 0.0],
            [107.266581778999821, -6.824203100999878, 0.0],
            [107.266565618999834, -6.824074030999866, 0.0],
            [107.266395538999859, -6.824032976999862, 0.0],
            [107.266160277999873, -6.824032553999853, 0.0],
            [107.266112239999813, -6.824038124999877, 0.0],
            [107.266017350999846, -6.824020329999848, 0.0],
            [107.265873889999853, -6.823945249999873, 0.0],
            [107.265801838999835, -6.823893429999861, 0.0],
            [107.265740591999815, -6.823806791999881, 0.0],
            [107.265779140999825, -6.823734623999854, 0.0],
            [107.265848436999818, -6.823703115999852, 0.0],
            [107.265949149999827, -6.823686182999871, 0.0],
            [107.266068683999848, -6.823585815999856, 0.0],
            [107.266070761999856, -6.823469424999849, 0.0],
            [107.265763211999854, -6.823157661999882, 0.0],
            [107.265455661999852, -6.822868761999849, 0.0],
            [107.265617153999813, -6.822773715999896, 0.0],
            [107.265681503999829, -6.822771287999876, 0.0],
            [107.26592919299982, -6.822841720999895, 0.0],
            [107.26626308799986, -6.822844149999895, 0.0],
            [107.266661193999823, -6.822865075999895, 0.0],
            [107.266692799999831, -6.822756233999852, 0.0],
            [107.26698962799982, -6.822417738999857, 0.0],
            [107.266687008999838, -6.822143469999879, 0.0],
            [107.266760689999842, -6.821986592999887, 0.0],
            [107.266760228999843, -6.821734305999859, 0.0],
            [107.266760162999844, -6.821699160999887, 0.0],
            [107.266929457999822, -6.821102923999864, 0.0],
            [107.266903186999855, -6.821073445999873, 0.0],
            [107.266907076999829, -6.821023542999881, 0.0],
            [107.266917461999824, -6.82098374899986, 0.0],
            [107.266896701999826, -6.820946003999871, 0.0],
            [107.266866428999833, -6.820940047999877, 0.0],
            [107.266931124999815, -6.820684758999881, 0.0],
            [107.266983901999822, -6.820510402999866, 0.0],
            [107.267052020999813, -6.820291011999849, 0.0],
            [107.267079949999825, -6.82017512699988, 0.0],
            [107.267127011999833, -6.820006536999836, 0.0],
            [107.267141523999854, -6.819836186999887, 0.0],
            [107.267229517999866, -6.819416764999882, 0.0],
            [107.267115601999834, -6.819375024999856, 0.0],
            [107.267169900999818, -6.819278196999871, 0.0],
            [107.267177357999856, -6.819264364999893, 0.0],
            [107.267223142999853, -6.819280096999845, 0.0],
            [107.267245495999816, -6.819287775999876, 0.0],
            [107.267358353999853, -6.819338847999891, 0.0],
            [107.267373593999821, -6.819343055999894, 0.0],
            [107.267378034999808, -6.819344283999865, 0.0],
            [107.267520313999853, -6.819383578999886, 0.0],
            [107.267727929999808, -6.819418689999876, 0.0],
            [107.268048693999859, -6.819483698999853, 0.0],
            [107.268147608999826, -6.819502763999857, 0.0],
            [107.268193808999854, -6.819511669999855, 0.0],
            [107.268308699999807, -6.81953381999986, 0.0],
            [107.268729260999805, -6.819592338999855, 0.0],
            [107.269104324999844, -6.819655256999886, 0.0],
            [107.269620049999858, -6.81973208899988, 0.0],
            [107.270395579999857, -6.819886780999889, 0.0],
            [107.270596703999843, -6.819886680999874, 0.0],
            [107.270926468999861, -6.819871018999857, 0.0],
            [107.271079516999819, -6.819852361999867, 0.0],
            [107.27112796299987, -6.819850937999866, 0.0],
            [107.271376175999819, -6.819843789999855, 0.0],
            [107.271686635999856, -6.819824181999842, 0.0],
            [107.272187465999821, -6.819817018999887, 0.0],
            [107.272426707999841, -6.819799074999844, 0.0],
            [107.272479275999856, -6.819794402999869, 0.0],
            [107.272526002999825, -6.819794403999846, 0.0],
            [107.272582077999857, -6.819793233999886, 0.0],
            [107.272656839999854, -6.819793233999895, 0.0],
            [107.27282623099984, -6.819801407999856, 0.0],
            [107.272996784999805, -6.819804908999892, 0.0],
            [107.273034165999832, -6.819806078999848, 0.0]
          ]
        ]
      }
    }
  ]
}
