{
  "type": "FeatureCollection",
  "name": "jalan",
  "crs": { "type": "name", "properties": { "name": "urn:ogc:def:crs:OGC:1.3:CRS84" } },
  "features": [
    {
      "type": "Feature",
      "properties": { "nama": null, "jenis": "Jalan Lokal", "kelas": 0, "material": 0, "lebar_m": 0.0 },
      "geometry": {
        "type": "LineString",
        "coordinates": [
          [107.263937271000088, -6.840450355999963],
          [107.263839489000077, -6.84029695199996],
          [107.263533989000052, -6.839676804999954]
        ]
      }
    },
    {
      "type": "Feature",
      "properties": { "nama": null, "jenis": "Jalan Lokal", "kelas": 0, "material": 0, "lebar_m": 0.0 },
      "geometry": {
        "type": "LineString",
        "coordinates": [
          [107.270340286363236, -6.843180279878172],
          [107.270374867000044, -6.843137225999953],
          [107.270549378000055, -6.842927047999979]
        ]
      }
    },
    {
      "type": "Feature",
      "properties": { "nama": null, "jenis": "Jalan Lokal", "kelas": 0, "material": 0, "lebar_m": 0.0 },
      "geometry": {
        "type": "LineString",
        "coordinates": [
          [107.270549378000055, -6.842927047999979],
          [107.270601425000052, -6.842831330999957]
        ]
      }
    },
    {
      "type": "Feature",
      "properties": { "nama": null, "jenis": "Jalan Lokal", "kelas": 0, "material": 0, "lebar_m": 0.0 },
      "geometry": {
        "type": "LineString",
        "coordinates": [
          [107.270601425000052, -6.842831330999957],
          [107.270861464000063, -6.84242030799993],
          [107.271306924000044, -6.841771078999955],
          [107.271958184000084, -6.840821892999941],
          [107.272206191000066, -6.84048308499996],
          [107.272515336000083, -6.840060747999928],
          [107.27262636100005, -6.839879649999943],
          [107.27263886800182, -6.839862999538475]
        ]
      }
    },
    {
      "type": "Feature",
      "properties": { "nama": null, "jenis": "Jalan Lokal", "kelas": 0, "material": 0, "lebar_m": 0.0 },
      "geometry": {
        "type": "LineString",
        "coordinates": [
          [107.27323443595553, -6.839061138969489],
          [107.273237852000079, -6.839055904999952]
        ]
      }
    },
    {
      "type": "Feature",
      "properties": { "nama": null, "jenis": "Jalan Lokal", "kelas": 0, "material": 0, "lebar_m": 0.0 },
      "geometry": {
        "type": "LineString",
        "coordinates": [
          [107.276501025000073, -6.834241513999928],
          [107.276577412000051, -6.834146974999953],
          [107.276860851000038, -6.833837971999969],
          [107.276898684000059, -6.833796728999971],
          [107.277245767000068, -6.833398852999949],
          [107.277470959000084, -6.833040853999933],
          [107.27776355900005, -6.83256214599993]
        ]
      }
    },
    {
      "type": "Feature",
      "properties": { "nama": null, "jenis": "Jalan Lokal", "kelas": 0, "material": 0, "lebar_m": 0.0 },
      "geometry": {
        "type": "LineString",
        "coordinates": [
          [107.27776355900005, -6.83256214599993],
          [107.278382976000046, -6.83175278899995],
          [107.278526377000048, -6.83156503899994],
          [107.27880953500005, -6.831130458999951],
          [107.279024290000052, -6.830816673999948],
          [107.279072691000067, -6.830745958999955],
          [107.279466851000052, -6.830216340999925],
          [107.279550275000076, -6.830099243999939]
        ]
      }
    },
    {
      "type": "Feature",
      "properties": { "nama": null, "jenis": "Jalan Lokal", "kelas": 0, "material": 0, "lebar_m": 0.0 },
      "geometry": {
        "type": "LineString",
        "coordinates": [
          [107.279550275000076, -6.830099243999939],
          [107.279984705000061, -6.829489439999975],
          [107.280077866000056, -6.829341346999968],
          [107.280154542000048, -6.829264043999956],
          [107.280294466000043, -6.829180773999951],
          [107.280538579000051, -6.829018588999929],
          [107.280726734000041, -6.828931881999949],
          [107.281167140000036, -6.828619993999951],
          [107.281722054000056, -6.828218338999932],
          [107.28226187100006, -6.827846583999928],
          [107.28302769000004, -6.827297190999957],
          [107.283033200000034, -6.827293747999931]
        ]
      }
    },
    {
      "type": "Feature",
      "properties": { "nama": null, "jenis": "Jalan Lokal", "kelas": 0, "material": 0, "lebar_m": 0.0 },
      "geometry": {
        "type": "LineString",
        "coordinates": [
          [107.283033200000034, -6.827293747999931],
          [107.283059868145969, -6.827277074989306]
        ]
      }
    },
    {
      "type": "Feature",
      "properties": { "nama": null, "jenis": "Jalan Lain", "kelas": 0, "material": 0, "lebar_m": 0.0 },
      "geometry": {
        "type": "LineString",
        "coordinates": [
          [107.282482706230397, -6.826743774084433],
          [107.282566527000085, -6.826871567999945],
          [107.282983247000061, -6.82724878099998],
          [107.283031541000071, -6.827292905999968],
          [107.283033200000034, -6.827293747999931]
        ]
      }
    },
    {
      "type": "Feature",
      "properties": { "nama": null, "jenis": "Jalan Lain", "kelas": 0, "material": 0, "lebar_m": 0.0 },
      "geometry": {
        "type": "MultiLineString",
        "coordinates": [
          [
            [107.270826490996797, -6.819875767398013],
            [107.270634464000068, -6.819902526999954],
            [107.270522605552557, -6.819886717842136]
          ],
          [
            [107.270267338532236, -6.819861201165355],
            [107.27009769700004, -6.819857362999926],
            [107.270067813000082, -6.819927501999928],
            [107.270047376000036, -6.820033300999967],
            [107.269911422000064, -6.820737063999957],
            [107.269948084000077, -6.821028989999945],
            [107.269963526000083, -6.821060598999964],
            [107.27011370200006, -6.821368043999939],
            [107.270195174000037, -6.82156187399994],
            [107.270198017000041, -6.821896487999936],
            [107.270199606000062, -6.822894132999977]
          ]
        ]
      }
    },
    {
      "type": "Feature",
      "properties": { "nama": null, "jenis": "Jalan Setapak", "kelas": 0, "material": 0, "lebar_m": 0.0 },
      "geometry": {
        "type": "LineString",
        "coordinates": [
          [107.275679038000078, -6.834141955999939],
          [107.275484068000083, -6.834134760999973],
          [107.274658230000057, -6.834104278999973],
          [107.274604691000036, -6.834102298999937],
          [107.274530784000035, -6.83401181399995],
          [107.27440394100006, -6.833926560999942],
          [107.274134784000069, -6.83385584499996],
          [107.27383857500007, -6.833843847999958],
          [107.273651158000064, -6.833890461999943],
          [107.273647148000066, -6.833893462999981],
          [107.273530400000084, -6.833955931999981],
          [107.273486290000051, -6.833957016999932],
          [107.273282316000063, -6.833962047999933],
          [107.272273820000066, -6.83403076899998]
        ]
      }
    },
    {
      "type": "Feature",
      "properties": { "nama": null, "jenis": "Jalan Setapak", "kelas": 0, "material": 0, "lebar_m": 0.0 },
      "geometry": {
        "type": "LineString",
        "coordinates": [
          [107.272273820000066, -6.83403076899998],
          [107.271878061000052, -6.834073094999951],
          [107.271584647000054, -6.834112895999965],
          [107.271449079000035, -6.83413128799998],
          [107.270739080000055, -6.834706493999931],
          [107.270637186000044, -6.834789040999965],
          [107.270489895000082, -6.834914230999971],
          [107.27027159000005, -6.835056341999973],
          [107.270215305000079, -6.835102905999975],
          [107.270061209000062, -6.835208204999958],
          [107.269877321000081, -6.83533416399996],
          [107.26843738000008, -6.836426437999933],
          [107.267665819000058, -6.837052767999978],
          [107.266862650000064, -6.837618042999964],
          [107.26652094800005, -6.837878513999954],
          [107.26651845300006, -6.837884527999961],
          [107.266369292000036, -6.837999303999936],
          [107.266333715000087, -6.838014801999975],
          [107.265837198000042, -6.83840532399995],
          [107.264659275000042, -6.839292950999948],
          [107.264149659000054, -6.839518073999955],
          [107.263811401000055, -6.839621508999926],
          [107.263533989000052, -6.839676804999954]
        ]
      }
    },
    {
      "type": "Feature",
      "properties": { "nama": null, "jenis": "Jalan Lain", "kelas": 0, "material": 0, "lebar_m": 0.0 },
      "geometry": {
        "type": "LineString",
        "coordinates": [
          [107.275713465000081, -6.829334474999939],
          [107.275214282000036, -6.829310193999959],
          [107.274342675000071, -6.829161485999975],
          [107.274154710000062, -6.829099497999948],
          [107.274146427000062, -6.829086248999943],
          [107.274027674000081, -6.828896229999941],
          [107.273848548000046, -6.828637825999976],
          [107.273746642000049, -6.828478080999957],
          [107.273694957000089, -6.828324813999927],
          [107.273606817000086, -6.82824205299994],
          [107.273041069000044, -6.82812486399996],
          [107.273038933000066, -6.828124421999973],
          [107.272966254000039, -6.828106215999981],
          [107.272986260000039, -6.827516620999972],
          [107.272968168000034, -6.827402415999927],
          [107.272772381000038, -6.82721775899995],
          [107.27255580700006, -6.827055000999962],
          [107.272471894000034, -6.826888724999947],
          [107.272494730000062, -6.82649048299993],
          [107.272486676000085, -6.826399315999936],
          [107.272356843000068, -6.826342810999961],
          [107.272227961000056, -6.826336475999938],
          [107.272068668000088, -6.826328648999947],
          [107.271934349000048, -6.826322050999977],
          [107.271802042000047, -6.826320007999925],
          [107.271734997000067, -6.826125223999952],
          [107.271758946000034, -6.82548903199995],
          [107.27176428100006, -6.825187977999974],
          [107.27174014700006, -6.824879913999951],
          [107.271723830000042, -6.824722258999941],
          [107.271694050000065, -6.824434612999937],
          [107.271608735000086, -6.824045620999925],
          [107.27157188700005, -6.823877630999959],
          [107.27152951000005, -6.823333144999935],
          [107.271527971000069, -6.823000983999975]
        ]
      }
    },
    {
      "type": "Feature",
      "properties": { "nama": null, "jenis": "Jalan Lain", "kelas": 0, "material": 0, "lebar_m": 0.0 },
      "geometry": {
        "type": "LineString",
        "coordinates": [
          [107.276501025000073, -6.834241513999928],
          [107.276535890000048, -6.834308761999978],
          [107.27670217900004, -6.834481506999964],
          [107.276854033000063, -6.834539334999931],
          [107.277155836000077, -6.834550308999951],
          [107.277157945000056, -6.834550714999978],
          [107.277349164000043, -6.834472471999959],
          [107.277648729000077, -6.83439111399997],
          [107.277723680000065, -6.834344723999948],
          [107.278127732000087, -6.834094681999943],
          [107.278285854000046, -6.834017173999939],
          [107.278551667000045, -6.834036651999952],
          [107.27909922200007, -6.834076769999967],
          [107.279267734000086, -6.83407908099997],
          [107.279364115000078, -6.834030084999938],
          [107.279436899000075, -6.833747993999964],
          [107.279499299000065, -6.833362129999955],
          [107.279486204000079, -6.833146556999964],
          [107.279449545000034, -6.833034709999936],
          [107.278873693000037, -6.832836190999956],
          [107.278137980000054, -6.832582564999939],
          [107.277825233000044, -6.832482996999943],
          [107.27776355900005, -6.83256214599993]
        ]
      }
    },
    {
      "type": "Feature",
      "properties": { "nama": null, "jenis": "Jalan Lain", "kelas": 0, "material": 0, "lebar_m": 0.0 },
      "geometry": {
        "type": "LineString",
        "coordinates": [
          [107.27776355900005, -6.83256214599993],
          [107.277667790000066, -6.832591242999968],
          [107.277423715000054, -6.83259004699994],
          [107.276899460000038, -6.832523648999938],
          [107.276363182000068, -6.832485209999959],
          [107.275979770000049, -6.83244730499996],
          [107.275944186000061, -6.832447815999956],
          [107.275914614000044, -6.832447828999932],
          [107.275695990000088, -6.832462483999961],
          [107.275678370000037, -6.832463660999963]
        ]
      }
    },
    {
      "type": "Feature",
      "properties": { "nama": null, "jenis": "Jalan Lain", "kelas": 0, "material": 0, "lebar_m": 0.0 },
      "geometry": {
        "type": "MultiLineString",
        "coordinates": [
          [
            [107.270199606000062, -6.822894132999977],
            [107.270123048000073, -6.822893010999962],
            [107.270091170000057, -6.822893025999974],
            [107.267875306000064, -6.822893932999932],
            [107.267033680000054, -6.822893225999962],
            [107.266908047000072, -6.822893120999936],
            [107.266695063000043, -6.822933323999962],
            [107.266458524000086, -6.822968485999979],
            [107.265928780000081, -6.822931185999948],
            [107.265773378000063, -6.82284122599998],
            [107.26566241629196, -6.822772008201285]
          ],
          [
            [107.266884850315904, -6.820867357890783],
            [107.266948971000033, -6.820848318999936],
            [107.266980746000058, -6.820722570999976],
            [107.267121514922337, -6.820026229157808]
          ],
          [
            [107.267128116299219, -6.819993574116713],
            [107.267238183000075, -6.819449106999969],
            [107.267236645000082, -6.819364453999981],
            [107.267216594000047, -6.819364014999962],
            [107.267122717443257, -6.8193623364765]
          ]
        ]
      }
    },
    {
      "type": "Feature",
      "properties": { "nama": null, "jenis": "Jalan Lain", "kelas": 0, "material": 0, "lebar_m": 0.0 },
      "geometry": {
        "type": "LineString",
        "coordinates": [
          [107.275678370000037, -6.832463660999963],
          [107.274551758000086, -6.832436189999953],
          [107.27431572100005, -6.832488293999972],
          [107.273728557000084, -6.832724029999952],
          [107.273641758000053, -6.832758878999925],
          [107.273514139000042, -6.832801991999929],
          [107.273138144000086, -6.832929002999947],
          [107.272712669000043, -6.832988544999978],
          [107.272339815000066, -6.833037741999931],
          [107.272323007000068, -6.83323009999998],
          [107.272310265000044, -6.833415939999952],
          [107.272297253000033, -6.833605803999944],
          [107.272272476000069, -6.833931923999955],
          [107.272273820000066, -6.83403076899998]
        ]
      }
    },
    {
      "type": "Feature",
      "properties": { "nama": null, "jenis": "Jalan Lain", "kelas": 0, "material": 0, "lebar_m": 0.0 },
      "geometry": {
        "type": "LineString",
        "coordinates": [
          [107.272273820000066, -6.83403076899998],
          [107.272292173000039, -6.834697539999979],
          [107.272311390000084, -6.83544386799997],
          [107.272312277000083, -6.835478455999976],
          [107.272439494000082, -6.835989349999977],
          [107.272446353000078, -6.836043758999949],
          [107.272593725000036, -6.83721204099993],
          [107.272637562000057, -6.837528110999926],
          [107.272710351000057, -6.837804588999973],
          [107.272897105000084, -6.838189222999972],
          [107.273033492000081, -6.838561846999937],
          [107.273187465000035, -6.838945088999935],
          [107.273237852000079, -6.839055904999952]
        ]
      }
    },
    {
      "type": "Feature",
      "properties": { "nama": null, "jenis": "Jalan Lain", "kelas": 0, "material": 0, "lebar_m": 0.0 },
      "geometry": {
        "type": "MultiLineString",
        "coordinates": [
          [
            [107.287965988766331, -6.83205547323554],
            [107.287912961196923, -6.8320402841478]
          ],
          [
            [107.287849180526834, -6.832022014968104],
            [107.286969509000073, -6.831770043999938],
            [107.286577030000046, -6.831652284999961],
            [107.286455897000053, -6.83157536899995],
            [107.286444256000038, -6.831348491999961],
            [107.286444037000081, -6.831344262999949],
            [107.286436423000055, -6.831255020999947],
            [107.286216818000071, -6.831081583999946],
            [107.286024380000072, -6.831001380999965],
            [107.285258248000048, -6.83089657599993],
            [107.285055124000053, -6.830900919999976],
            [107.28476930100004, -6.830877634999979],
            [107.284217803000047, -6.830777377999937],
            [107.284216473000072, -6.830777284999954],
            [107.283911921000083, -6.830755814999975],
            [107.283349821000058, -6.830971338999973],
            [107.282862901000044, -6.831213921999961],
            [107.282552618000068, -6.831399019999935],
            [107.282506260000048, -6.831421755999941]
          ]
        ]
      }
    },
    {
      "type": "Feature",
      "properties": { "nama": null, "jenis": "Jalan Lain", "kelas": 0, "material": 0, "lebar_m": 0.0 },
      "geometry": {
        "type": "LineString",
        "coordinates": [
          [107.263358320330283, -6.8323087858146],
          [107.263435592000064, -6.832295034999959],
          [107.26394024800004, -6.832229858999938],
          [107.264349181000057, -6.832142380999926],
          [107.26460624300006, -6.832029972999976],
          [107.264764064000076, -6.831906931999981],
          [107.264950359000068, -6.831440993999934],
          [107.265049760000068, -6.830990115999953],
          [107.265089001000035, -6.83076527299994],
          [107.265092162000087, -6.830747143999929],
          [107.265157023000086, -6.83063190699994],
          [107.265300373000059, -6.830533618999937],
          [107.265826536000077, -6.830359880999936],
          [107.266424416000064, -6.830301377999945],
          [107.266898529000059, -6.830297682999969],
          [107.267195203000085, -6.830245414999979],
          [107.268107281000084, -6.830086444999949],
          [107.268694909000033, -6.829975497999953]
        ]
      }
    },
    {
      "type": "Feature",
      "properties": { "nama": null, "jenis": "Jalan Lain", "kelas": 0, "material": 0, "lebar_m": 0.0 },
      "geometry": {
        "type": "LineString",
        "coordinates": [
          [107.280161987000042, -6.829739948999929],
          [107.28017933600006, -6.82979792499998],
          [107.280700481000054, -6.830065561999959],
          [107.280960466000067, -6.830232004999971],
          [107.28104952800004, -6.830344706999938],
          [107.281106086000079, -6.830707228999927],
          [107.281311604000052, -6.83095588599997],
          [107.281398419000084, -6.831287233999944],
          [107.281426889000045, -6.831375011999967],
          [107.281611378000036, -6.831415247999928],
          [107.281650700000057, -6.831415323999977],
          [107.281877789000077, -6.831467921999945],
          [107.282201311000051, -6.831446556999936],
          [107.282454677000032, -6.831395334999968],
          [107.282503829000063, -6.83139347499997],
          [107.282506260000048, -6.831421755999941]
        ]
      }
    },
    {
      "type": "Feature",
      "properties": { "nama": null, "jenis": "Jalan Lain", "kelas": 0, "material": 0, "lebar_m": 0.0 },
      "geometry": {
        "type": "LineString",
        "coordinates": [
          [107.270199606000062, -6.822894132999977],
          [107.270405200000084, -6.822867051999935],
          [107.27217723800004, -6.822864996999954],
          [107.272624877000055, -6.822864478999975],
          [107.273123394000038, -6.822863665999932],
          [107.273687384000084, -6.822862733999955],
          [107.273692358000062, -6.822862727999961],
          [107.274034346000064, -6.822862914999973],
          [107.274699235911186, -6.822863263864778]
        ]
      }
    },
    {
      "type": "Feature",
      "properties": { "nama": null, "jenis": "Jalan Lain", "kelas": 0, "material": 0, "lebar_m": 0.0 },
      "geometry": {
        "type": "LineString",
        "coordinates": [
          [107.275713465000081, -6.829334474999939],
          [107.27571245300004, -6.82932496199993],
          [107.275695309000071, -6.828948773999969],
          [107.275690186000077, -6.827648873999976],
          [107.275718661000042, -6.825420749999978],
          [107.275719871000035, -6.825315058999934],
          [107.275686129498879, -6.823520167884542]
        ]
      }
    },
    {
      "type": "Feature",
      "properties": { "nama": null, "jenis": "Jalan Lain", "kelas": 0, "material": 0, "lebar_m": 0.0 },
      "geometry": {
        "type": "LineString",
        "coordinates": [
          [107.286993503178635, -6.835363154302278],
          [107.286520326000073, -6.835198564999928],
          [107.28573349900006, -6.834885195999959],
          [107.284538094000084, -6.834480653999947],
          [107.283241869000051, -6.834083337999971],
          [107.283126573000061, -6.83405685799994],
          [107.283126042000049, -6.834017259999939],
          [107.283162417000085, -6.833680465999976],
          [107.283173047000048, -6.833187735999957],
          [107.283056643000066, -6.832963957999937],
          [107.282986557000072, -6.832184856999959],
          [107.282838875000039, -6.831956010999932],
          [107.282506260000048, -6.831421755999941]
        ]
      }
    },
    {
      "type": "Feature",
      "properties": { "nama": null, "jenis": "Jalan Lain", "kelas": 0, "material": 0, "lebar_m": 0.0 },
      "geometry": {
        "type": "LineString",
        "coordinates": [
          [107.275713465000081, -6.829334474999939],
          [107.275715132000073, -6.829380855999943],
          [107.275712061000036, -6.829924866999932],
          [107.275694061000081, -6.830345113999954],
          [107.27567990700004, -6.830675765999956],
          [107.275679442000069, -6.830973288999928],
          [107.275677859000041, -6.831984675999934],
          [107.275678370000037, -6.832463660999963]
        ]
      }
    },
    {
      "type": "Feature",
      "properties": { "nama": null, "jenis": "Jalan Lain", "kelas": 0, "material": 0, "lebar_m": 0.0 },
      "geometry": {
        "type": "LineString",
        "coordinates": [
          [107.275678370000037, -6.832463660999963],
          [107.27567883200004, -6.83363385399997],
          [107.275679038000078, -6.834141955999939]
        ]
      }
    },
    {
      "type": "Feature",
      "properties": { "nama": null, "jenis": "Jalan Lain", "kelas": 0, "material": 0, "lebar_m": 0.0 },
      "geometry": {
        "type": "LineString",
        "coordinates": [
          [107.279550275000076, -6.830099243999939],
          [107.279397110000048, -6.830201792999958],
          [107.278014305000056, -6.830042946999981],
          [107.276690190000068, -6.830011946999946],
          [107.276501747000054, -6.830007531999968],
          [107.276284233000069, -6.829998453999963]
        ]
      }
    },
    {
      "type": "Feature",
      "properties": { "nama": null, "jenis": "Jalan Lokal", "kelas": 0, "material": 0, "lebar_m": 0.0 },
      "geometry": {
        "type": "LineString",
        "coordinates": [
          [107.270745059065376, -6.844207326940741],
          [107.270576809520406, -6.843795876006816]
        ]
      }
    },
    {
      "type": "Feature",
      "properties": { "nama": null, "jenis": "Jalan Lain", "kelas": 0, "material": 0, "lebar_m": 0.0 },
      "geometry": {
        "type": "LineString",
        "coordinates": [
          [107.263937271000088, -6.840450355999963],
          [107.263880838000034, -6.840410242999951],
          [107.263807326000062, -6.840378762999933],
          [107.263641927000037, -6.840371965999964],
          [107.26329310400007, -6.840377267999941],
          [107.262853997000036, -6.840225062999934],
          [107.262814549000041, -6.840200481999943],
          [107.262702938000075, -6.840090828999962],
          [107.262641773000041, -6.839927046999946],
          [107.26262450300004, -6.839639810999927],
          [107.262481155000046, -6.839521809999951],
          [107.262426232107998, -6.839462153602865]
        ]
      }
    },
    {
      "type": "Feature",
      "properties": { "nama": null, "jenis": "Jalan Lokal", "kelas": 0, "material": 0, "lebar_m": 0.0 },
      "geometry": {
        "type": "MultiLineString",
        "coordinates": [
          [
            [107.27079511950113, -6.844178777467114],
            [107.270949871000084, -6.844058493999967],
            [107.270986953000033, -6.844051168999954],
            [107.271040793000054, -6.844013374999975],
            [107.27104562096055, -6.844009985330382]
          ],
          [
            [107.271128372096214, -6.84394312855999],
            [107.271131413849488, -6.843919870995224]
          ],
          [
            [107.271088990885261, -6.843713977749011],
            [107.271010545000081, -6.843543765999925],
            [107.270952013000056, -6.84347663899996],
            [107.270900476000065, -6.843417534999958],
            [107.270854452000037, -6.843364752999946],
            [107.270608432000074, -6.843054734999953],
            [107.270551548000071, -6.842934539999931],
            [107.270549378000055, -6.842927047999979]
          ]
        ]
      }
    },
    {
      "type": "Feature",
      "properties": { "nama": null, "jenis": "Jalan Lokal", "kelas": 0, "material": 0, "lebar_m": 0.0 },
      "geometry": {
        "type": "LineString",
        "coordinates": [
          [107.263533989000052, -6.839676804999954],
          [107.263533560000042, -6.83967592099998],
          [107.26334939700007, -6.839231619999964],
          [107.263260739000089, -6.838514827999973],
          [107.263243240000065, -6.838125115999958],
          [107.263253574217757, -6.836499695959152]
        ]
      }
    },
    {
      "type": "Feature",
      "properties": { "nama": null, "jenis": "Jalan Lokal", "kelas": 0, "material": 0, "lebar_m": 0.0 },
      "geometry": {
        "type": "LineString",
        "coordinates": [
          [107.264603271000055, -6.835542325999938],
          [107.264486643000055, -6.835613207999927],
          [107.264116553563255, -6.835732498693857]
        ]
      }
    },
    {
      "type": "Feature",
      "properties": { "nama": null, "jenis": "Jalan Lokal", "kelas": 0, "material": 0, "lebar_m": 0.0 },
      "geometry": {
        "type": "LineString",
        "coordinates": [
          [107.273237852000079, -6.839055904999952],
          [107.273712981000074, -6.83832401799998],
          [107.273872852000068, -6.838095541999962],
          [107.274400717000049, -6.837331036999956],
          [107.274942718000034, -6.836546054999928],
          [107.275091373000066, -6.836330764999957],
          [107.275150823000047, -6.836215416999949],
          [107.275197593000087, -6.836170641999956],
          [107.275420410000038, -6.835931491999929],
          [107.275730912000085, -6.835494946999972],
          [107.275823738000042, -6.835311882999974],
          [107.275922890000061, -6.835116342999981],
          [107.275957300000073, -6.835055021999949],
          [107.275971116000051, -6.835032294999962]
        ]
      }
    },
    {
      "type": "Feature",
      "properties": { "nama": null, "jenis": "Jalan Lokal", "kelas": 0, "material": 0, "lebar_m": 0.0 },
      "geometry": {
        "type": "LineString",
        "coordinates": [
          [107.275971116000051, -6.835032294999962],
          [107.276057124000033, -6.834890816999973],
          [107.276189338000052, -6.834660518999954],
          [107.276232680000078, -6.834602246999964],
          [107.276501025000073, -6.834241513999928]
        ]
      }
    },
    {
      "type": "Feature",
      "properties": { "nama": null, "jenis": "Jalan Lokal", "kelas": 0, "material": 0, "lebar_m": 0.0 },
      "geometry": {
        "type": "LineString",
        "coordinates": [
          [107.275679038000078, -6.834141955999939],
          [107.275679720000085, -6.834215295999968],
          [107.275716343000056, -6.834646574999965],
          [107.275793752000084, -6.834830876999945],
          [107.275971116000051, -6.835032294999962]
        ]
      }
    },
    {
      "type": "Feature",
      "properties": { "nama": null, "jenis": "Jalan Setapak", "kelas": 0, "material": 0, "lebar_m": 0.0 },
      "geometry": {
        "type": "LineString",
        "coordinates": [
          [107.268867610616482, -6.842242529589127],
          [107.267422214747967, -6.841805291497975]
        ]
      }
    },
    {
      "type": "Feature",
      "properties": { "nama": null, "jenis": "Jalan Setapak", "kelas": 0, "material": 0, "lebar_m": 0.0 },
      "geometry": {
        "type": "LineString",
        "coordinates": [
          [107.270601425000052, -6.842831330999957],
          [107.269992534000039, -6.842338321999932],
          [107.269593315000066, -6.841913850999958],
          [107.269191973000034, -6.841344464999963],
          [107.268987328000037, -6.841074049999975],
          [107.268122949000087, -6.839938314999927],
          [107.267687546000047, -6.839394288999927],
          [107.267532786000061, -6.839541424999936],
          [107.267492304000086, -6.839579262999962],
          [107.267153105000034, -6.839829969999926],
          [107.266601459000071, -6.840217011999925],
          [107.266255757000067, -6.840492714999925],
          [107.265902527000037, -6.840752445999954],
          [107.2653875549003, -6.841223445357616]
        ]
      }
    },
    {
      "type": "Feature",
      "properties": { "nama": null, "jenis": "Jalan Setapak", "kelas": 0, "material": 0, "lebar_m": 0.0 },
      "geometry": {
        "type": "LineString",
        "coordinates": [
          [107.264120812945663, -6.840922826428321],
          [107.264048763000062, -6.840778655999941],
          [107.263993476000053, -6.840643925999927],
          [107.263993467000034, -6.840632409999955],
          [107.26396808800007, -6.840530052999952],
          [107.263937271000088, -6.840450355999963]
        ]
      }
    }
  ]
}
