{
  "type": "FeatureCollection",
  "name": "sungai",
  "crs": { "type": "name", "properties": { "name": "urn:ogc:def:crs:OGC:1.3:CRS84" } },
  "features": [
    {
      "type": "Feature",
      "properties": { "nama": null, "jenis": "Sungai Satu Garis", "nama_das": null, "nama_ws": null },
      "geometry": {
        "type": "MultiLineString",
        "coordinates": [
          [
            [107.263880396002421, -6.840487494629812],
            [107.263952728999811, -6.840468080999847],
            [107.26398864099987, -6.840458438999888],
            [107.26406399099983, -6.84051710999987],
            [107.264127500999848, -6.840652333999881],
            [107.264243597999837, -6.840831123999882],
            [107.264437926999861, -6.840993238999856],
            [107.264621392999871, -6.84106855599984],
            [107.264666869999829, -6.841073376999838],
            [107.264964723999796, -6.841104930999874],
            [107.265340132999825, -6.841152670999892],
            [107.265386058999809, -6.841170215999879],
            [107.265432862999845, -6.841188091999849],
            [107.265470957999824, -6.841198099999851],
            [107.26616265499986, -6.841320240999865],
            [107.266635174037333, -6.841422248736298]
          ],
          [
            [107.266673999628225, -6.84143063043169],
            [107.266678425999828, -6.841431585999858],
            [107.266692105450261, -6.841437003981031]
          ],
          [
            [107.266867528295975, -6.841506483210415],
            [107.267049862999841, -6.841578699999874],
            [107.267501013999834, -6.841756640999871],
            [107.268280483999845, -6.842040191999877],
            [107.268281979999827, -6.842039135999852],
            [107.268571714999837, -6.842141908999888],
            [107.269015088999836, -6.842262477999876],
            [107.269024342999842, -6.842264991999892],
            [107.269730656999869, -6.842291532999901]
          ]
        ]
      }
    },
    {
      "type": "Feature",
      "properties": { "nama": null, "jenis": "Sungai Satu Garis", "nama_das": null, "nama_ws": null },
      "geometry": {
        "type": "LineString",
        "coordinates": [
          [107.26862067399982, -6.827399018999845],
          [107.268844425999831, -6.827334908999863],
          [107.269103038999845, -6.827345270999877],
          [107.26920480399987, -6.827410044999882],
          [107.269241535999825, -6.827543776999878],
          [107.269239612999868, -6.827742148999875],
          [107.269260612999872, -6.827970557999865],
          [107.26934225299982, -6.828105777999877],
          [107.270195783999839, -6.829133324999838],
          [107.27054807999987, -6.829538432999836],
          [107.270846603999814, -6.82983650899988],
          [107.271114805999858, -6.830019632999867],
          [107.271691273999807, -6.830305622999878],
          [107.272230167999851, -6.830609207999865],
          [107.272573243999844, -6.830895944999861],
          [107.27283539399987, -6.831216425999886]
        ]
      }
    },
    {
      "type": "Feature",
      "properties": { "nama": null, "jenis": "Sungai Satu Garis", "nama_das": null, "nama_ws": null },
      "geometry": {
        "type": "MultiLineString",
        "coordinates": [
          [
            [107.269730656999869, -6.842291532999901],
            [107.269042815999867, -6.841389071999886],
            [107.268772724999849, -6.841039032999864],
            [107.267394619999848, -6.839258817999885],
            [107.266064937999843, -6.837478565999883],
            [107.265572888999827, -6.836830807999862],
            [107.265317464999853, -6.836494552999877],
            [107.26486003499987, -6.835873087999881],
            [107.264603270999828, -6.835542325999858],
            [107.264281205999865, -6.835127453999888],
            [107.264063608416762, -6.834847156791066]
          ],
          [
            [107.264010438549761, -6.834778666300044],
            [107.263997792999831, -6.834762376999857],
            [107.263950644999852, -6.83466571699986],
            [107.263929753287357, -6.834637173481847]
          ]
        ]
      }
    },
    {
      "type": "Feature",
      "properties": { "nama": null, "jenis": "Sungai Satu Garis", "nama_das": null, "nama_ws": null },
      "geometry": {
        "type": "LineString",
        "coordinates": [
          [107.271041033610643, -6.844013691568076],
          [107.271040792999827, -6.844013374999897],
          [107.270374866999816, -6.843137225999868],
          [107.270240516999834, -6.842960467999866],
          [107.269866959999831, -6.842470360999835],
          [107.269730656999869, -6.842291532999901]
        ]
      }
    },
    {
      "type": "Feature",
      "properties": { "nama": "Saluran Irigasi", "jenis": "Sungai Satu Garis", "nama_das": null, "nama_ws": null },
      "geometry": {
        "type": "LineString",
        "coordinates": [
          [107.278628249530826, -6.83984944607091],
          [107.278607563999856, -6.839744009999857],
          [107.278260498999828, -6.838297193999874],
          [107.277900515999818, -6.83653957699986],
          [107.277787913999816, -6.836299264999889],
          [107.27766436099985, -6.836204143999883],
          [107.277165502999836, -6.835837647999853],
          [107.276579613999843, -6.835351542999859],
          [107.276409487999842, -6.835193621999878],
          [107.275860312999825, -6.834618812999869],
          [107.275821033999833, -6.834404194999856],
          [107.275785546999842, -6.833819282999881],
          [107.275783015999821, -6.833777534999878],
          [107.275788796999848, -6.833621176999856],
          [107.275833114999855, -6.83242167599988],
          [107.275817817999837, -6.830988543999904],
          [107.275811221999859, -6.830370204999871],
          [107.275809890999838, -6.830245489999844],
          [107.275809336999828, -6.830193472999865],
          [107.275810150999874, -6.829575631999857],
          [107.275812285999862, -6.827965314999883],
          [107.275812001999853, -6.825729633999878],
          [107.275809294527448, -6.823788930609608]
        ]
      }
    },
    {
      "type": "Feature",
      "properties": { "nama": "Ci Bodas", "jenis": "Sungai Satu Garis", "nama_das": null, "nama_ws": null },
      "geometry": {
        "type": "MultiLineString",
        "coordinates": [
          [
            [107.281496559423715, -6.834264601866901],
            [107.28149005999984, -6.834102442999869],
            [107.281453902999843, -6.833741966999889],
            [107.281414733999839, -6.833522332999887],
            [107.281307971999809, -6.833352154999853],
            [107.281088594999872, -6.833194559999895],
            [107.28096083499986, -6.833119887999867],
            [107.280909047999856, -6.833029561999893],
            [107.280917775999853, -6.832943857999878],
            [107.281108663999817, -6.832614873999867],
            [107.281145101999826, -6.832514186999871],
            [107.281017062999823, -6.832376749999899],
            [107.280918032999807, -6.832286593999899],
            [107.281065248999823, -6.832081541999885],
            [107.281170340999836, -6.831907296999841],
            [107.281196055999828, -6.831776506999892],
            [107.281156928999849, -6.831670664999854],
            [107.280901036999808, -6.83149029199988],
            [107.280677086999845, -6.831361659999893],
            [107.280536153999833, -6.831199841999847],
            [107.280458148999855, -6.831017731999884],
            [107.280395782999847, -6.830595551999896],
            [107.280324186999849, -6.830389891999887],
            [107.280155211999826, -6.830151979999847],
            [107.280111469999838, -6.830100736999872],
            [107.280071637999825, -6.830054084999896],
            [107.280047233999838, -6.830014934999858],
            [107.280161986999829, -6.829739948999851],
            [107.280254593999814, -6.829534098999868],
            [107.28029446599983, -6.829180773999862],
            [107.28029533799986, -6.829168123999895],
            [107.280385920999819, -6.827851568999877],
            [107.280341948999833, -6.826997372999838],
            [107.280285685999843, -6.825904440999895],
            [107.280295323707506, -6.825661301999875]
          ],
          [
            [107.28031518974575, -6.825481994513319],
            [107.280317759023177, -6.82546122427754]
          ]
        ]
      }
    },
    {
      "type": "Feature",
      "properties": { "nama": "Ci Biuk", "jenis": "Sungai Satu Garis", "nama_das": null, "nama_ws": null },
      "geometry": {
        "type": "MultiLineString",
        "coordinates": [
          [
            [107.26862067399982, -6.827399018999845],
            [107.268604293735592, -6.827355231915293]
          ],
          [
            [107.268561274195434, -6.827240233755481],
            [107.268482400999858, -6.827029392999897],
            [107.268387646999841, -6.826694306999883],
            [107.268339624474521, -6.826653515979095]
          ],
          [
            [107.267851766651873, -6.826235937805873],
            [107.267775897999854, -6.826164674999892],
            [107.267879275335076, -6.825835400724498]
          ],
          [
            [107.267820387456041, -6.825600145921547],
            [107.267714512999831, -6.825450883999872],
            [107.267628766999849, -6.825336706999881],
            [107.26770742490254, -6.825180035460472]
          ],
          [
            [107.267769281477115, -6.825073026771928],
            [107.267799338999851, -6.825024055999886],
            [107.267798197999809, -6.824931382999889],
            [107.267698404863026, -6.824848020160159]
          ],
          [
            [107.267028371561707, -6.8248255969626],
            [107.267015424999855, -6.824829162999866],
            [107.266775761236886, -6.824714561132125]
          ],
          [
            [107.266615730935342, -6.824634843950612],
            [107.266529024999841, -6.824561360999867],
            [107.266559083999837, -6.82440155299989],
            [107.266613655999834, -6.824267788999885],
            [107.266607096999849, -6.82415758799985],
            [107.266571473458441, -6.824120790589873]
          ],
          [
            [107.2660294459493, -6.824022598225101],
            [107.265902357999835, -6.823931794999882],
            [107.265836269999852, -6.823834147999867],
            [107.265886874700726, -6.823696653422135]
          ],
          [
            [107.265799556800815, -6.823194504673188],
            [107.265619900999823, -6.822943076999843],
            [107.265499976522989, -6.822842680719252]
          ],
          [
            [107.272787481873095, -6.839604542141091],
            [107.272553088999814, -6.839394145999885],
            [107.272475492999845, -6.839011472999889],
            [107.272443810999846, -6.838886756999866],
            [107.272283290999837, -6.838782932999857],
            [107.272110344999817, -6.838700155999879],
            [107.27202706199985, -6.838614379999881],
            [107.272023014999832, -6.83852521999987],
            [107.272054250999815, -6.838427522999872],
            [107.272019948999869, -6.838387605999888],
            [107.271955064999815, -6.83831210099985],
            [107.271803176999811, -6.838245395999841],
            [107.271523526999829, -6.838270461999881],
            [107.271369673999857, -6.838295168999845],
            [107.271222300999867, -6.838242388999875],
            [107.271109390999811, -6.838125820999867],
            [107.270874335999864, -6.837431128999905],
            [107.270806782999841, -6.836964795999871],
            [107.270815575999848, -6.83678345799987],
            [107.270900633999815, -6.836565521999862],
            [107.271070863999853, -6.836381605999899],
            [107.27123945399984, -6.836239330999861],
            [107.271293443999824, -6.836149136999866],
            [107.271071551999853, -6.835761512999889],
            [107.270907180999814, -6.835554199999843],
            [107.270640974999822, -6.835367414999863],
            [107.270261982999855, -6.835145665999882],
            [107.270215304999866, -6.8351029059999],
            [107.270130024999844, -6.835024793999844],
            [107.270052273999852, -6.83485951999987],
            [107.270084651999809, -6.834505350999883],
            [107.270094121999819, -6.834271917999876],
            [107.270029986999816, -6.834054043999884],
            [107.269679894999868, -6.833649043999882],
            [107.269022979999832, -6.832774696999853],
            [107.268918965999831, -6.832603416999881],
            [107.268914951999832, -6.8323449459999],
            [107.268891753999824, -6.832248778999852],
            [107.268707995999819, -6.83207027299986],
            [107.268572638999842, -6.831966734999897],
            [107.268543586999854, -6.831891106999844],
            [107.268511079999826, -6.831686740999864],
            [107.268499394999822, -6.831540977999876],
            [107.268662056999858, -6.830782002999888],
            [107.268659010999855, -6.830561598999886],
            [107.268694908999819, -6.829975497999877],
            [107.268697226999862, -6.829586543999859],
            [107.268697343999861, -6.829567244999877],
            [107.268682404999836, -6.829199071999851],
            [107.268672017999862, -6.8290367789999],
            [107.26819057199981, -6.828516458999867],
            [107.268058958999873, -6.828378002999878],
            [107.268009336999853, -6.828122556999885],
            [107.268045118999865, -6.827741832999858],
            [107.268090572999824, -6.827623098999849],
            [107.26824995723841, -6.827611063432375]
          ],
          [
            [107.268598142518272, -6.827462024037941],
            [107.26862067399982, -6.827399018999845]
          ]
        ]
      }
    },
    {
      "type": "Feature",
      "properties": { "nama": "Ci Ranjang", "jenis": "Sungai Satu Garis", "nama_das": null, "nama_ws": null },
      "geometry": {
        "type": "MultiLineString",
        "coordinates": [
          [
            [107.261834229697811, -6.837776342704704],
            [107.261850999004594, -6.837795751987088]
          ],
          [
            [107.26196450840844, -6.838218199953838],
            [107.261980971999833, -6.838346606999862],
            [107.26198192899983, -6.838354095999852],
            [107.262079661999849, -6.838501335999896],
            [107.262358280999834, -6.8387543239999],
            [107.262362540999845, -6.838758190999872],
            [107.26236589317503, -6.838762540912134]
          ],
          [
            [107.262544658199147, -6.839037219840042],
            [107.262576044999832, -6.839132301999858],
            [107.262481154999833, -6.839521809999863],
            [107.262477427999855, -6.839537094999876],
            [107.262384401999853, -6.839890283999892],
            [107.26235674340559, -6.840165904450973]
          ],
          [
            [107.262581985812574, -6.840550960072492],
            [107.262753333999868, -6.84065630499984],
            [107.262974108075795, -6.840737288148739]
          ],
          [
            [107.263054079310024, -6.840751374057397],
            [107.263220619980046, -6.84076800896067]
          ],
          [
            [107.263314129035649, -6.840764494367584],
            [107.263525170465869, -6.84064968574911]
          ],
          [
            [107.26390209912023, -6.840892820621788],
            [107.263897496409498, -6.840974519804432]
          ]
        ]
      }
    },
    {
      "type": "Feature",
      "properties": { "nama": null, "jenis": "Sungai Satu Garis", "nama_das": null, "nama_ws": null },
      "geometry": {
        "type": "MultiLineString",
        "coordinates": [
          [
            [107.263880396002421, -6.840487494629812],
            [107.263952728999811, -6.840468080999847],
            [107.26398864099987, -6.840458438999888],
            [107.26406399099983, -6.84051710999987],
            [107.264127500999848, -6.840652333999881],
            [107.264243597999837, -6.840831123999882],
            [107.264437926999861, -6.840993238999856],
            [107.264621392999871, -6.84106855599984],
            [107.264666869999829, -6.841073376999838],
            [107.264964723999796, -6.841104930999874],
            [107.265340132999825, -6.841152670999892],
            [107.265386058999809, -6.841170215999879],
            [107.265432862999845, -6.841188091999849],
            [107.265470957999824, -6.841198099999851],
            [107.26616265499986, -6.841320240999865],
            [107.266635174037333, -6.841422248736298]
          ],
          [
            [107.266673999628225, -6.84143063043169],
            [107.266678425999828, -6.841431585999858],
            [107.266692105450261, -6.841437003981031]
          ],
          [
            [107.266867528295975, -6.841506483210415],
            [107.267049862999841, -6.841578699999874],
            [107.267501013999834, -6.841756640999871],
            [107.268280483999845, -6.842040191999877],
            [107.268281979999827, -6.842039135999852],
            [107.268571714999837, -6.842141908999888],
            [107.269015088999836, -6.842262477999876],
            [107.269024342999842, -6.842264991999892],
            [107.269730656999869, -6.842291532999901]
          ]
        ]
      }
    },
    {
      "type": "Feature",
      "properties": { "nama": null, "jenis": "Sungai Satu Garis", "nama_das": null, "nama_ws": null },
      "geometry": {
        "type": "LineString",
        "coordinates": [
          [107.26862067399982, -6.827399018999845],
          [107.268844425999831, -6.827334908999863],
          [107.269103038999845, -6.827345270999877],
          [107.26920480399987, -6.827410044999882],
          [107.269241535999825, -6.827543776999878],
          [107.269239612999868, -6.827742148999875],
          [107.269260612999872, -6.827970557999865],
          [107.26934225299982, -6.828105777999877],
          [107.270195783999839, -6.829133324999838],
          [107.27054807999987, -6.829538432999836],
          [107.270846603999814, -6.82983650899988],
          [107.271114805999858, -6.830019632999867],
          [107.271691273999807, -6.830305622999878],
          [107.272230167999851, -6.830609207999865],
          [107.272573243999844, -6.830895944999861],
          [107.27283539399987, -6.831216425999886]
        ]
      }
    },
    {
      "type": "Feature",
      "properties": { "nama": null, "jenis": "Sungai Satu Garis", "nama_das": null, "nama_ws": null },
      "geometry": {
        "type": "MultiLineString",
        "coordinates": [
          [
            [107.269730656999869, -6.842291532999901],
            [107.269042815999867, -6.841389071999886],
            [107.268772724999849, -6.841039032999864],
            [107.267394619999848, -6.839258817999885],
            [107.266064937999843, -6.837478565999883],
            [107.265572888999827, -6.836830807999862],
            [107.265317464999853, -6.836494552999877],
            [107.26486003499987, -6.835873087999881],
            [107.264603270999828, -6.835542325999858],
            [107.264281205999865, -6.835127453999888],
            [107.264063608416762, -6.834847156791066]
          ],
          [
            [107.264010438549761, -6.834778666300044],
            [107.263997792999831, -6.834762376999857],
            [107.263950644999852, -6.83466571699986],
            [107.263929753287357, -6.834637173481847]
          ]
        ]
      }
    },
    {
      "type": "Feature",
      "properties": { "nama": null, "jenis": "Sungai Satu Garis", "nama_das": null, "nama_ws": null },
      "geometry": {
        "type": "LineString",
        "coordinates": [
          [107.271041033610643, -6.844013691568076],
          [107.271040792999827, -6.844013374999897],
          [107.270374866999816, -6.843137225999868],
          [107.270240516999834, -6.842960467999866],
          [107.269866959999831, -6.842470360999835],
          [107.269730656999869, -6.842291532999901]
        ]
      }
    },
    {
      "type": "Feature",
      "properties": { "nama": "Saluran Irigasi", "jenis": "Sungai Satu Garis", "nama_das": null, "nama_ws": null },
      "geometry": {
        "type": "LineString",
        "coordinates": [
          [107.278628249530826, -6.83984944607091],
          [107.278607563999856, -6.839744009999857],
          [107.278260498999828, -6.838297193999874],
          [107.277900515999818, -6.83653957699986],
          [107.277787913999816, -6.836299264999889],
          [107.27766436099985, -6.836204143999883],
          [107.277165502999836, -6.835837647999853],
          [107.276579613999843, -6.835351542999859],
          [107.276409487999842, -6.835193621999878],
          [107.275860312999825, -6.834618812999869],
          [107.275821033999833, -6.834404194999856],
          [107.275785546999842, -6.833819282999881],
          [107.275783015999821, -6.833777534999878],
          [107.275788796999848, -6.833621176999856],
          [107.275833114999855, -6.83242167599988],
          [107.275817817999837, -6.830988543999904],
          [107.275811221999859, -6.830370204999871],
          [107.275809890999838, -6.830245489999844],
          [107.275809336999828, -6.830193472999865],
          [107.275810150999874, -6.829575631999857],
          [107.275812285999862, -6.827965314999883],
          [107.275812001999853, -6.825729633999878],
          [107.275809294527448, -6.823788930609608]
        ]
      }
    },
    {
      "type": "Feature",
      "properties": { "nama": "Ci Bodas", "jenis": "Sungai Satu Garis", "nama_das": null, "nama_ws": null },
      "geometry": {
        "type": "MultiLineString",
        "coordinates": [
          [
            [107.281496559423715, -6.834264601866901],
            [107.28149005999984, -6.834102442999869],
            [107.281453902999843, -6.833741966999889],
            [107.281414733999839, -6.833522332999887],
            [107.281307971999809, -6.833352154999853],
            [107.281088594999872, -6.833194559999895],
            [107.28096083499986, -6.833119887999867],
            [107.280909047999856, -6.833029561999893],
            [107.280917775999853, -6.832943857999878],
            [107.281108663999817, -6.832614873999867],
            [107.281145101999826, -6.832514186999871],
            [107.281017062999823, -6.832376749999899],
            [107.280918032999807, -6.832286593999899],
            [107.281065248999823, -6.832081541999885],
            [107.281170340999836, -6.831907296999841],
            [107.281196055999828, -6.831776506999892],
            [107.281156928999849, -6.831670664999854],
            [107.280901036999808, -6.83149029199988],
            [107.280677086999845, -6.831361659999893],
            [107.280536153999833, -6.831199841999847],
            [107.280458148999855, -6.831017731999884],
            [107.280395782999847, -6.830595551999896],
            [107.280324186999849, -6.830389891999887],
            [107.280155211999826, -6.830151979999847],
            [107.280111469999838, -6.830100736999872],
            [107.280071637999825, -6.830054084999896],
            [107.280047233999838, -6.830014934999858],
            [107.280161986999829, -6.829739948999851],
            [107.280254593999814, -6.829534098999868],
            [107.28029446599983, -6.829180773999862],
            [107.28029533799986, -6.829168123999895],
            [107.280385920999819, -6.827851568999877],
            [107.280341948999833, -6.826997372999838],
            [107.280285685999843, -6.825904440999895],
            [107.280295323707506, -6.825661301999875]
          ],
          [
            [107.28031518974575, -6.825481994513319],
            [107.280317759023177, -6.82546122427754]
          ]
        ]
      }
    },
    {
      "type": "Feature",
      "properties": { "nama": "Ci Biuk", "jenis": "Sungai Satu Garis", "nama_das": null, "nama_ws": null },
      "geometry": {
        "type": "MultiLineString",
        "coordinates": [
          [
            [107.26862067399982, -6.827399018999845],
            [107.268604293735592, -6.827355231915293]
          ],
          [
            [107.268561274195434, -6.827240233755481],
            [107.268482400999858, -6.827029392999897],
            [107.268387646999841, -6.826694306999883],
            [107.268339624474521, -6.826653515979095]
          ],
          [
            [107.267851766651873, -6.826235937805873],
            [107.267775897999854, -6.826164674999892],
            [107.267879275335076, -6.825835400724498]
          ],
          [
            [107.267820387456041, -6.825600145921547],
            [107.267714512999831, -6.825450883999872],
            [107.267628766999849, -6.825336706999881],
            [107.26770742490254, -6.825180035460472]
          ],
          [
            [107.267769281477115, -6.825073026771928],
            [107.267799338999851, -6.825024055999886],
            [107.267798197999809, -6.824931382999889],
            [107.267698404863026, -6.824848020160159]
          ],
          [
            [107.267028371561707, -6.8248255969626],
            [107.267015424999855, -6.824829162999866],
            [107.266775761236886, -6.824714561132125]
          ],
          [
            [107.266615730935342, -6.824634843950612],
            [107.266529024999841, -6.824561360999867],
            [107.266559083999837, -6.82440155299989],
            [107.266613655999834, -6.824267788999885],
            [107.266607096999849, -6.82415758799985],
            [107.266571473458441, -6.824120790589873]
          ],
          [
            [107.2660294459493, -6.824022598225101],
            [107.265902357999835, -6.823931794999882],
            [107.265836269999852, -6.823834147999867],
            [107.265886874700726, -6.823696653422135]
          ],
          [
            [107.265799556800815, -6.823194504673188],
            [107.265619900999823, -6.822943076999843],
            [107.265499976522989, -6.822842680719252]
          ],
          [
            [107.272787481873095, -6.839604542141091],
            [107.272553088999814, -6.839394145999885],
            [107.272475492999845, -6.839011472999889],
            [107.272443810999846, -6.838886756999866],
            [107.272283290999837, -6.838782932999857],
            [107.272110344999817, -6.838700155999879],
            [107.27202706199985, -6.838614379999881],
            [107.272023014999832, -6.83852521999987],
            [107.272054250999815, -6.838427522999872],
            [107.272019948999869, -6.838387605999888],
            [107.271955064999815, -6.83831210099985],
            [107.271803176999811, -6.838245395999841],
            [107.271523526999829, -6.838270461999881],
            [107.271369673999857, -6.838295168999845],
            [107.271222300999867, -6.838242388999875],
            [107.271109390999811, -6.838125820999867],
            [107.270874335999864, -6.837431128999905],
            [107.270806782999841, -6.836964795999871],
            [107.270815575999848, -6.83678345799987],
            [107.270900633999815, -6.836565521999862],
            [107.271070863999853, -6.836381605999899],
            [107.27123945399984, -6.836239330999861],
            [107.271293443999824, -6.836149136999866],
            [107.271071551999853, -6.835761512999889],
            [107.270907180999814, -6.835554199999843],
            [107.270640974999822, -6.835367414999863],
            [107.270261982999855, -6.835145665999882],
            [107.270215304999866, -6.8351029059999],
            [107.270130024999844, -6.835024793999844],
            [107.270052273999852, -6.83485951999987],
            [107.270084651999809, -6.834505350999883],
            [107.270094121999819, -6.834271917999876],
            [107.270029986999816, -6.834054043999884],
            [107.269679894999868, -6.833649043999882],
            [107.269022979999832, -6.832774696999853],
            [107.268918965999831, -6.832603416999881],
            [107.268914951999832, -6.8323449459999],
            [107.268891753999824, -6.832248778999852],
            [107.268707995999819, -6.83207027299986],
            [107.268572638999842, -6.831966734999897],
            [107.268543586999854, -6.831891106999844],
            [107.268511079999826, -6.831686740999864],
            [107.268499394999822, -6.831540977999876],
            [107.268662056999858, -6.830782002999888],
            [107.268659010999855, -6.830561598999886],
            [107.268694908999819, -6.829975497999877],
            [107.268697226999862, -6.829586543999859],
            [107.268697343999861, -6.829567244999877],
            [107.268682404999836, -6.829199071999851],
            [107.268672017999862, -6.8290367789999],
            [107.26819057199981, -6.828516458999867],
            [107.268058958999873, -6.828378002999878],
            [107.268009336999853, -6.828122556999885],
            [107.268045118999865, -6.827741832999858],
            [107.268090572999824, -6.827623098999849],
            [107.26824995723841, -6.827611063432375]
          ],
          [
            [107.268598142518272, -6.827462024037941],
            [107.26862067399982, -6.827399018999845]
          ]
        ]
      }
    },
    {
      "type": "Feature",
      "properties": { "nama": "Ci Ranjang", "jenis": "Sungai Satu Garis", "nama_das": null, "nama_ws": null },
      "geometry": {
        "type": "MultiLineString",
        "coordinates": [
          [
            [107.261834229697811, -6.837776342704704],
            [107.261850999004594, -6.837795751987088]
          ],
          [
            [107.26196450840844, -6.838218199953838],
            [107.261980971999833, -6.838346606999862],
            [107.26198192899983, -6.838354095999852],
            [107.262079661999849, -6.838501335999896],
            [107.262358280999834, -6.8387543239999],
            [107.262362540999845, -6.838758190999872],
            [107.26236589317503, -6.838762540912134]
          ],
          [
            [107.262544658199147, -6.839037219840042],
            [107.262576044999832, -6.839132301999858],
            [107.262481154999833, -6.839521809999863],
            [107.262477427999855, -6.839537094999876],
            [107.262384401999853, -6.839890283999892],
            [107.26235674340559, -6.840165904450973]
          ],
          [
            [107.262581985812574, -6.840550960072492],
            [107.262753333999868, -6.84065630499984],
            [107.262974108075795, -6.840737288148739]
          ],
          [
            [107.263054079310024, -6.840751374057397],
            [107.263220619980046, -6.84076800896067]
          ],
          [
            [107.263314129035649, -6.840764494367584],
            [107.263525170465869, -6.84064968574911]
          ],
          [
            [107.26390209912023, -6.840892820621788],
            [107.263897496409498, -6.840974519804432]
          ]
        ]
      }
    }
  ]
}
